TANAGER-1               
1 60507U 24149AR  26199.19522321  .00000178  00000+0  57620-5 0  9990
2 60507  97.2314 293.3122 0001821 145.1446 214.9922 15.43943177107826
